[{"OBJECT_NAME":"STARLINK-31766","OBJECT_ID":"2024-088R","EPOCH":"2026-03-09T10:40:42.466080","MEAN_MOTION":15.30187169,"ECCENTRICITY":0.00010989,"INCLINATION":53.1612,"RA_OF_ASC_NODE":141.1212,"ARG_OF_PERICENTER":77.1102,"MEAN_ANOMALY":283.0021,"EPHEMERIS_TYPE":0,"CLASSIFICATION_TYPE":"U","NORAD_CAT_ID":59723,"ELEMENT_SET_NO":999,"REV_AT_EPOCH":10364,"BSTAR":-3.224748e-6,"MEAN_MOTION_DOT":-4.54e-6,"MEAN_MOTION_DDOT":0},{"OBJECT_NAME":"OBJECT B","OBJECT_ID":"2024-153B","EPOCH":"2026-03-09T23:15:18.632160","MEAN_MOTION":15.30512917,"ECCENTRICITY":0.00113423,"INCLINATION":97.6622,"RA_OF_ASC_NODE":204.9195,"ARG_OF_PERICENTER":149.8438,"MEAN_ANOMALY":210.3457,"EPHEMERIS_TYPE":0,"CLASSIFICATION_TYPE":"U","NORAD_CAT_ID":60746,"ELEMENT_SET_NO":999,"REV_AT_EPOCH":8476,"BSTAR":0.00066193599,"MEAN_MOTION_DOT":0.00019515,"MEAN_MOTION_DDOT":0}]
